MEAN_MOTION;ECCENTRICITY;INCLINATION;RA_OF_ASC_NODE;ARG_OF_PERICENTER;MEAN_ANOMALY;BSTAR;MEAN_MOTION_DOT;MEAN_MOTION_DDOT;TYPE
1.00153426;0.002038;2.4933;303.652;310.981;353.4782;0;-2.08E-6;0;Intelsat
1.00153281;0.0020354;2.4922;303.6544;310.97;188.799;0;-2.08E-6;0;Intelsat
1.00153163;0.0020355;2.4915;303.657;310.9479;318.2245;0;-2.08E-6;0;Intelsat
1.00152945;0.0020334;2.4895;303.6613;310.9306;320.5837;0;-2.08E-6;0;Intelsat
1.00152761;0.0020301;2.4881;303.6645;310.923;219.4005;0;-2.08E-6;0;Intelsat
1.00152679;0.0020307;2.4876;303.6666;310.9138;297.0341;0;-2.07E-6;0;Intelsat
1.00152663;0.0020307;2.4875;303.6658;310.9168;322.9447;0;-2.08E-6;0;Intelsat
1.00152493;0.0020283;2.4862;303.6685;310.9195;213.4564;0;-2.06E-6;0;Intelsat
1.00152219;0.0020256;2.4835;303.6745;310.9084;327.6221;0;-2.02E-6;0;Intelsat
1.00152219;0.0020256;2.4835;303.6745;310.9084;327.6221;0;-2.02E-6;0;Intelsat
1.00151988;0.0020234;2.4814;303.6791;310.9158;329.9452;0;-1.98E-6;0;Intelsat
1.00151776;0.0020208;2.4794;303.6839;310.9241;332.2705;0;-1.93E-6;0;Intelsat
1.0015175;0.0020207;2.4793;303.6836;310.9281;358.1524;0;-1.92E-6;0;Intelsat
1.00151544;0.0020179;2.4774;303.6886;310.934;334.6055;0;-1.87E-6;0;Intelsat
1.00151364;0.0020156;2.4755;303.694;310.9468;311.0201;0;-1.82E-6;0;Intelsat
1.00151217;0.0020137;2.4742;303.6954;310.9701;183.9605;0;-1.78E-6;0;Intelsat
1.00151141;0.0020123;2.4733;303.6978;310.959;339.244;0;-1.76E-6;0;Intelsat
1.00150956;0.0020094;2.4712;303.7022;310.9747;341.5537;0;-1.7E-6;0;Intelsat
1.00150828;0.0020076;2.4701;303.7045;310.9933;188.5804;0;-1.67E-6;0;Intelsat
1.00150751;0.0020059;2.4691;303.7067;310.9799;343.8684;0;-1.65E-6;0;Intelsat
1.00150651;0.0020042;2.4679;303.7101;311.0002;216.7879;0;-1.62E-6;0;Intelsat
1.00150592;0.0020026;2.4671;303.7115;310.9855;346.1496;0;-1.61E-6;0;Intelsat
1.00150488;0.0020011;2.4659;303.7138;311.0001;193.209;0;-1.58E-6;0;Intelsat
1.00150491;0.0020006;2.4658;303.715;310.9998;219.0603;0;-1.58E-6;0;Intelsat
1.00150435;0.0019992;2.465;303.7162;310.9867;348.4768;0;-1.56E-6;0;Intelsat
1.0015028;0.0019943;2.4629;303.7209;310.9642;357.7036;0;-1.51E-6;0;Intelsat
1.00150198;0.0019919;2.4617;303.7238;310.9605;197.8855;0;-1.47E-6;0;Intelsat
1.00150156;0.0019898;2.4609;303.7267;310.9442;327.2884;0;-1.46E-6;0;Intelsat
1.00149992;0.0019848;2.4587;303.7314;310.9101;355.5337;0;-1.39E-6;0;Intelsat
1.00149891;0.0019807;2.4567;303.7372;310.8847;332.0164;0;-1.33E-6;0;Intelsat
1.00149776;0.0019761;2.4546;303.7426;310.8392;334.3684;0;-1.27E-6;0;Intelsat
1.00149711;0.0019726;2.4528;303.7487;310.8042;284.9574;0;-1.21E-6;0;Intelsat
1.00149703;0.0019717;2.4525;303.7476;310.7915;336.7421;0;-1.2E-6;0;Intelsat
1.00149641;0.0019692;2.4512;303.7506;310.7515;209.7161;0;-1.16E-6;0;Intelsat
1.00149603;0.0019672;2.4503;303.7527;310.733;339.1341;0;-1.14E-6;0;Intelsat
1.00149567;0.0019651;2.4492;303.7552;310.6893;186.2253;0;-1.1E-6;0;Intelsat
1.00149555;0.0019631;2.4484;303.7586;310.6716;315.6171;0;-1.08E-6;0;Intelsat
1.00149554;0.0019628;2.4482;303.7579;310.6663;341.5085;0;-1.07E-6;0;Intelsat
1.0014947;0.0019589;2.4462;303.7629;310.5955;333.6141;0;-1.02E-6;0;Intelsat
1.00149399;0.0019555;2.4442;303.7679;310.5272;320.4304;0;-9.8E-7;0;Intelsat
1.00149401;0.0019553;2.4441;303.7674;310.5242;336.2323;0;-9.8E-7;0;Intelsat
1.00149346;0.0019521;2.442;303.7719;310.4526;348.7106;0;-9.5E-7;0;Intelsat
1.00149315;0.0019492;2.44;303.7769;310.3733;325.2238;0;-9.2E-7;0;Intelsat
1.001493;0.0019466;2.4379;303.781;310.3026;353.4889;0;-9.2E-7;0;Intelsat
1.00149257;0.0019444;2.4359;303.7861;310.2264;329.9985;0;-9.1E-7;0;Intelsat
1.00149251;0.0019442;2.4358;303.7857;310.2269;355.8835;0;-9.1E-7;0;Intelsat
1.00149246;0.0019426;2.4339;303.7912;310.1647;332.3916;0;-9.1E-7;0;Intelsat
1.0014923;0.001941;2.4319;303.7965;310.1071;334.7858;0;-8.9E-7;0;Intelsat
1.00149223;0.0019397;2.4298;303.8018;310.0655;337.1278;0;-8.8E-7;0;Intelsat
1.00149218;0.0019387;2.4278;303.8071;310.0381;339.4961;0;-8.5E-7;0;Intelsat
1.00149226;0.0019374;2.4257;303.8124;310.003;341.8409;0;-8.0E-7;0;Intelsat
1.00149267;0.0019359;2.4241;303.8186;309.9761;266.5385;0;-7.6E-7;0;Intelsat
1.00149255;0.0019358;2.4233;303.8201;309.9839;61.8403;0;-7.3E-7;0;Intelsat
1.00149261;0.0019349;2.4215;303.8222;309.9642;346.5329;0;-6.9E-7;0;Intelsat
1.00149276;0.0019328;2.4195;303.8272;309.9289;348.8901;0;-6.3E-7;0;Intelsat
1.00149301;0.0019328;2.4191;303.8299;309.937;66.5358;0;-6.2E-7;0;Intelsat
1.00149336;0.0019312;2.4174;303.8317;309.9159;351.2067;0;-5.7E-7;0;Intelsat
1.00149366;0.0019292;2.4154;303.8371;309.8964;327.6635;0;-5.2E-7;0;Intelsat
1.0014941;0.001928;2.4141;303.8393;309.8959;200.5944;0;-4.9E-7;0;Intelsat
1.0014941;0.0019278;2.414;303.8405;309.8952;226.479;0;-4.9E-7;0;Intelsat
1.00149407;0.0019272;2.4133;303.8417;309.8858;329.9991;0;-4.7E-7;0;Intelsat
1.00149453;0.0019258;2.4119;303.845;309.8817;224.5638;0;-4.4E-7;0;Intelsat
1.00149482;0.0019246;2.4111;303.846;309.8589;348.0708;0;-4.2E-7;0;Intelsat
1.00149533;0.0019232;2.4098;303.8498;309.8522;224.6319;0;-3.9E-7;0;Intelsat
1.00149541;0.0019225;2.4092;303.852;309.8425;308.8125;0;-3.8E-7;0;Intelsat
1.00149555;0.001922;2.4089;303.8508;309.8329;0.5941;0;-3.7E-7;0;Intelsat
1.00149657;0.0019195;2.4067;303.8561;309.807;18.1373;0;-3.2E-7;0;Intelsat
1.00149726;0.0019169;2.4047;303.8613;309.7761;339.4213;0;-2.7E-7;0;Intelsat
1.00149819;0.0019134;2.4026;303.8666;309.7104;341.8054;0;-2.2E-7;0;Intelsat
1.00149956;0.0019101;2.4005;303.8717;309.65;344.1915;0;-1.6E-7;0;Intelsat
1.00149991;0.0019095;2.4001;303.8741;309.6259;61.87;0;-1.4E-7;0;Intelsat
1.00150075;0.0019071;2.3983;303.8769;309.5972;346.5009;0;-9.0E-8;0;Intelsat
1.0015023;0.0019038;2.3962;303.8822;309.5216;348.9014;0;-3.0E-8;0;Intelsat
1.00150247;0.001903;2.3958;303.8848;309.4863;66.5902;0;-1.0E-8;0;Intelsat
1.00150306;0.0019018;2.3949;303.886;309.4554;221.9016;0;1.0E-8;0;Intelsat
1.00150372;0.0019004;2.394;303.8873;309.431;351.3251;0;4.0E-8;0;Intelsat
1.00150484;0.0018987;2.3927;303.8911;309.3615;226.4472;0;8.0E-8;0;Intelsat
1.00150543;0.0018976;2.3919;303.8922;309.3474;349.7432;0;1.0E-7;0;Intelsat
1.00150561;0.0018969;2.3915;303.895;309.317;71.4311;0;1.1E-7;0;Intelsat
1.00150631;0.0018959;2.3906;303.896;309.278;226.715;0;1.3E-7;0;Intelsat
1.00150706;0.0018946;2.3897;303.8969;309.2441;353.3752;0;1.5E-7;0;Intelsat
1.00150875;0.001892;2.3876;303.9013;309.1423;358.6026;0;1.9E-7;0;Intelsat
1.00150907;0.0018913;2.3872;303.9042;309.1142;76.2846;0;2.0E-7;0;Intelsat
1.00151043;0.0018897;2.3855;303.9056;309.0396;1.0102;0;2.2E-7;0;Intelsat
1.00151246;0.0018881;2.3835;303.9101;308.9419;337.5577;0;2.4E-7;0;Intelsat
1.00151394;0.0018868;2.3821;303.9137;308.8689;231.6467;0;2.5E-7;0;Intelsat
1.00151593;0.0018857;2.3798;303.9195;308.7675;264.7463;0;2.5E-7;0;Intelsat
1.0015185;0.001885;2.3773;303.9232;308.6645;344.8283;0;2.5E-7;0;Intelsat
1.00151863;0.0018849;2.3772;303.9231;308.664;2.1988;0;2.5E-7;0;Intelsat
1.00152002;0.001884;2.3759;303.9276;308.5985;235.338;0;2.5E-7;0;Intelsat
1.00152061;0.0018847;2.3752;303.928;308.5874;347.2356;0;2.5E-7;0;Intelsat
1.00152209;0.0018837;2.3739;303.9328;308.5221;237.4648;0;2.5E-7;0;Intelsat
1.00152289;0.0018845;2.3731;303.9331;308.5115;349.6273;0;2.6E-7;0;Intelsat
1.00152317;0.0018845;2.373;303.9333;308.514;15.5426;0;2.6E-7;0;Intelsat
1.00152539;0.0018846;2.371;303.9384;308.4641;15.5437;0;2.8E-7;0;Intelsat
1.00152757;0.0018846;2.369;303.9432;308.4089;354.3996;0;3.0E-7;0;Intelsat
1.00152776;0.0018845;2.3687;303.9447;308.4049;46.1739;0;3.1E-7;0;Intelsat
1.00152966;0.0018844;2.367;303.9487;308.3564;330.9119;0;3.4E-7;0;Intelsat
1.00153234;0.0018847;2.3647;303.9528;308.3407;359.1545;0;3.9E-7;0;Intelsat
1.00153258;0.0018844;2.3644;303.9559;308.33;76.809;0;4.1E-7;0;Intelsat
1.00153471;0.0018842;2.3626;303.9572;308.2911;1.5355;0;4.4E-7;0;Intelsat
1.00153744;0.0018838;2.3605;303.9617;308.2529;16.7316;0;4.9E-7;0;Intelsat
1.0015377;0.0018837;2.3601;303.9647;308.2424;81.57;0;5.0E-7;0;Intelsat
1.0015399;0.001883;2.3584;303.9657;308.2039;6.2981;0;5.3E-7;0;Intelsat
1.00154152;0.0018825;2.3571;303.9695;308.1875;233.9667;0;5.6E-7;0;Intelsat
1.0015425;0.0018821;2.3562;303.9699;308.167;11.464;0;5.7E-7;0;Intelsat
1.00154276;0.0018818;2.3558;303.9732;308.1336;86.3586;0;5.8E-7;0;Intelsat
1.001545;0.0018804;2.3541;303.9742;308.1069;12.8703;0;6.1E-7;0;Intelsat
1.00154667;0.0018798;2.3528;303.9782;308.0938;236.4185;0;6.3E-7;0;Intelsat
1.00154755;0.0018792;2.3521;303.9786;308.0652;347.561;0;6.4E-7;0;Intelsat
1.00155008;0.0018782;2.3505;303.9842;308.0296;272.277;0;6.7E-7;0;Intelsat
1.00155072;0.0018776;2.35;303.983;308.0104;349.9619;0;6.8E-7;0;Intelsat
1.00155387;0.0018758;2.3477;303.9877;307.9398;18.2775;0;7.2E-7;0;Intelsat
1.00155688;0.0018741;2.3457;303.9924;307.8771;354.7941;0;7.6E-7;0;Intelsat
1.00155716;0.0018739;2.3456;303.9926;307.8661;20.6921;0;7.6E-7;0;Intelsat
1.00155997;0.0018721;2.3436;303.9972;307.7943;357.2065;0;8.1E-7;0;Intelsat
1.00156323;0.0018702;2.3414;304.0019;307.7066;359.6612;0;8.6E-7;0;Intelsat
1.00156661;0.0018682;2.3393;304.007;307.6123;2.0948;0;9.1E-7;0;Intelsat
1.00157019;0.0018663;2.3371;304.0118;307.5085;4.5472;0;9.6E-7;0;Intelsat
1.00157358;0.0018646;2.335;304.0167;307.3998;6.9592;0;1.01E-6;0;Intelsat
1.00157431;0.0018644;2.3345;304.0199;307.3685;84.6492;0;1.02E-6;0;Intelsat
1.00158045;0.0018622;2.3308;304.0253;307.1811;345.9913;0;1.09E-6;0;Intelsat
1.0015807;0.001862;2.3307;304.0251;307.1737;11.8863;0;1.09E-6;0;Intelsat
1.00158433;0.0018612;2.3286;304.0291;307.0589;14.3403;0;1.11E-6;0;Intelsat
1.00158777;0.0018608;2.3266;304.0328;306.9478;350.948;0;1.12E-6;0;Intelsat
1.00159181;0.0018607;2.3246;304.0365;306.8403;350.8637;0;1.12E-6;0;Intelsat
1.00159564;0.0018609;2.3225;304.0402;306.7401;11.424;0;1.1E-6;0;Intelsat
1.00159941;0.0018616;2.3204;304.0442;306.6441;1.8092;0;1.09E-6;0;Intelsat
1.00160008;0.0018613;2.3201;304.0471;306.6238;76.0115;0;1.08E-6;0;Intelsat
1.00160354;0.0018626;2.3183;304.049;306.5458;31.5363;0;1.07E-6;0;Intelsat
1.00160726;0.0018639;2.3163;304.0531;306.4766;20.4353;0;1.06E-6;0;Intelsat
